{
  "type": "FeatureCollection",
  "features": [
    {
      "type": "Feature",
      "properties": {
        "norad_id": 34492,
        "name": "IRIDIUM 33 DEB",
        "group": "iridium-33-debris",
        "lat": -63.920381392112226,
        "lon": -32.44127668019713,
        "alt_km": 736.3995665970779,
        "timestamp": "2025-12-12T07:43:20.900309+00:00",
        "meta_object_name": "IRIDIUM 33 DEB",
        "meta_object_id": "1997-051GH",
        "meta_epoch": "2025-12-11T23:52:20.307936",
        "meta_mean_motion": 14.25702027,
        "meta_eccentricity": 0.01889123,
        "meta_inclination": 86.4727,
        "meta_ra_of_asc_node": 334.9304,
        "meta_arg_of_pericenter": 240.6265,
        "meta_mean_anomaly": 175.7475,
        "meta_ephemeris_type": 0,
        "meta_classification_type": "U",
        "meta_norad_cat_id": 34492,
        "meta_element_set_no": 999,
        "meta_rev_at_epoch": 85048,
        "meta_bstar": 0.0061972974,
        "meta_mean_motion_dot": 0.00017773,
        "meta_mean_motion_ddot": 0,
        "tle_line1": "1 34492U 97051GH  25345.99467949  .00017773  00000+0  61973-2 0  9992",
        "tle_line2": "2 34492  86.4727 334.9304 0188912 240.6265 175.7475 14.25702027850489"
      },
      "geometry": {
        "type": "Point",
        "coordinates": [
          -32.44127668019713,
          -63.920381392112226
        ]
      }
    },
    {
      "type": "Feature",
      "properties": {
        "norad_id": 34497,
        "name": "IRIDIUM 33 DEB",
        "group": "iridium-33-debris",
        "lat": 10.146717842886424,
        "lon": -128.08704959146058,
        "alt_km": 857.99479884633,
        "timestamp": "2025-12-12T07:43:20.900319+00:00",
        "meta_object_name": "IRIDIUM 33 DEB",
        "meta_object_id": "1997-051GN",
        "meta_epoch": "2025-12-10T04:35:23.086752",
        "meta_mean_motion": 14.2744131,
        "meta_eccentricity": 0.00790645,
        "meta_inclination": 86.2779,
        "meta_ra_of_asc_node": 53.4903,
        "meta_arg_of_pericenter": 347.8917,
        "meta_mean_anomaly": 40.4515,
        "meta_ephemeris_type": 0,
        "meta_classification_type": "U",
        "meta_norad_cat_id": 34497,
        "meta_element_set_no": 999,
        "meta_rev_at_epoch": 86847,
        "meta_bstar": 0.00082191095,
        "meta_mean_motion_dot": 2.102e-05,
        "meta_mean_motion_ddot": 0,
        "tle_line1": "1 34497U 97051GN  25344.19123943  .00002102  00000+0  82191-3 0  9997",
        "tle_line2": "2 34497  86.2779  53.4903 0079064 347.8917  40.4515 14.27441310868476"
      },
      "geometry": {
        "type": "Point",
        "coordinates": [
          -128.08704959146058,
          10.146717842886424
        ]
      }
    },
    {
      "type": "Feature",
      "properties": {
        "norad_id": 34508,
        "name": "IRIDIUM 33 DEB",
        "group": "iridium-33-debris",
        "lat": -48.03371316067156,
        "lon": 98.77222876216652,
        "alt_km": 805.3537643256886,
        "timestamp": "2025-12-12T07:43:20.900330+00:00",
        "meta_object_name": "IRIDIUM 33 DEB",
        "meta_object_id": "1997-051GZ",
        "meta_epoch": "2025-12-11T20:15:42.194304",
        "meta_mean_motion": 14.3841552,
        "meta_eccentricity": 0.00660682,
        "meta_inclination": 86.3699,
        "meta_ra_of_asc_node": 103.0225,
        "meta_arg_of_pericenter": 175.8688,
        "meta_mean_anomaly": 184.307,
        "meta_ephemeris_type": 0,
        "meta_classification_type": "U",
        "meta_norad_cat_id": 34508,
        "meta_element_set_no": 999,
        "meta_rev_at_epoch": 87296,
        "meta_bstar": 0.0023452152,
        "meta_mean_motion_dot": 7.356e-05,
        "meta_mean_motion_ddot": 0,
        "tle_line1": "1 34508U 97051GZ  25345.84423836  .00007356  00000+0  23452-2 0  9997",
        "tle_line2": "2 34508  86.3699 103.0225 0066068 175.8688 184.3070 14.38415520872963"
      },
      "geometry": {
        "type": "Point",
        "coordinates": [
          98.77222876216652,
          -48.03371316067156
        ]
      }
    },
    {
      "type": "Feature",
      "properties": {
        "norad_id": 34521,
        "name": "IRIDIUM 33 DEB",
        "group": "iridium-33-debris",
        "lat": 85.99975036477551,
        "lon": 145.8781415811302,
        "alt_km": 675.4666298077573,
        "timestamp": "2025-12-12T07:43:20.900340+00:00",
        "meta_object_name": "IRIDIUM 33 DEB",
        "meta_object_id": "1997-051HN",
        "meta_epoch": "2025-12-11T13:15:08.871264",
        "meta_mean_motion": 14.63350474,
        "meta_eccentricity": 0.00014194,
        "meta_inclination": 86.3802,
        "meta_ra_of_asc_node": 31.0706,
        "meta_arg_of_pericenter": 220.6966,
        "meta_mean_anomaly": 139.4141,
        "meta_ephemeris_type": 0,
        "meta_classification_type": "U",
        "meta_norad_cat_id": 34521,
        "meta_element_set_no": 999,
        "meta_rev_at_epoch": 88455,
        "meta_bstar": 0.0013668765,
        "meta_mean_motion_dot": 7.081e-05,
        "meta_mean_motion_ddot": 0,
        "tle_line1": "1 34521U 97051HN  25345.55218601  .00007081  00000+0  13669-2 0  9996",
        "tle_line2": "2 34521  86.3802  31.0706 0001419 220.6966 139.4141 14.63350474884557"
      },
      "geometry": {
        "type": "Point",
        "coordinates": [
          145.8781415811302,
          85.99975036477551
        ]
      }
    },
    {
      "type": "Feature",
      "properties": {
        "norad_id": 34525,
        "name": "IRIDIUM 33 DEB",
        "group": "iridium-33-debris",
        "lat": -58.42788334825662,
        "lon": 41.09749955796032,
        "alt_km": 760.3999204646734,
        "timestamp": "2025-12-12T07:43:20.900350+00:00",
        "meta_object_name": "IRIDIUM 33 DEB",
        "meta_object_id": "1997-051HS",
        "meta_epoch": "2025-12-11T22:34:35.054400",
        "meta_mean_motion": 14.42903085,
        "meta_eccentricity": 0.00066616,
        "meta_inclination": 86.3729,
        "meta_ra_of_asc_node": 47.1846,
        "meta_arg_of_pericenter": 97.1091,
        "meta_mean_anomaly": 26.1025,
        "meta_ephemeris_type": 0,
        "meta_classification_type": "U",
        "meta_norad_cat_id": 34525,
        "meta_element_set_no": 999,
        "meta_rev_at_epoch": 88076,
        "meta_bstar": 0.00059132386,
        "meta_mean_motion_dot": 1.995e-05,
        "meta_mean_motion_ddot": 0,
        "tle_line1": "1 34525U 97051HS  25345.94068350  .00001995  00000+0  59132-3 0  9991",
        "tle_line2": "2 34525  86.3729  47.1846 0006661  97.1091  26.1025 14.42903085880763"
      },
      "geometry": {
        "type": "Point",
        "coordinates": [
          41.09749955796032,
          -58.42788334825662
        ]
      }
    },
    {
      "type": "Feature",
      "properties": {
        "norad_id": 34529,
        "name": "IRIDIUM 33 DEB",
        "group": "iridium-33-debris",
        "lat": -19.82281273510461,
        "lon": -143.09653822973135,
        "alt_km": 758.5938635319471,
        "timestamp": "2025-12-12T07:43:20.900361+00:00",
        "meta_object_name": "IRIDIUM 33 DEB",
        "meta_object_id": "1997-051HW",
        "meta_epoch": "2025-12-11T20:47:45.904992",
        "meta_mean_motion": 14.40614839,
        "meta_eccentricity": 0.00047004,
        "meta_inclination": 86.3641,
        "meta_ra_of_asc_node": 35.7841,
        "meta_arg_of_pericenter": 179.4725,
        "meta_mean_anomaly": 180.648,
        "meta_ephemeris_type": 0,
        "meta_classification_type": "U",
        "meta_norad_cat_id": 34529,
        "meta_element_set_no": 999,
        "meta_rev_at_epoch": 88129,
        "meta_bstar": 0.00017622708,
        "meta_mean_motion_dot": 5.82e-06,
        "meta_mean_motion_ddot": 0,
        "tle_line1": "1 34529U 97051HW  25345.86650353  .00000582  00000+0  17623-3 0  9996",
        "tle_line2": "2 34529  86.3641  35.7841 0004700 179.4725 180.6480 14.40614839881292"
      },
      "geometry": {
        "type": "Point",
        "coordinates": [
          -143.09653822973135,
          -19.82281273510461
        ]
      }
    },
    {
      "type": "Feature",
      "properties": {
        "norad_id": 34538,
        "name": "IRIDIUM 33 DEB",
        "group": "iridium-33-debris",
        "lat": 33.923976822398,
        "lon": 8.248810648961154,
        "alt_km": 737.5508566631306,
        "timestamp": "2025-12-12T07:43:20.900371+00:00",
        "meta_object_name": "IRIDIUM 33 DEB",
        "meta_object_id": "1997-051JF",
        "meta_epoch": "2025-12-11T12:17:49.059168",
        "meta_mean_motion": 14.42637449,
        "meta_eccentricity": 0.00329249,
        "meta_inclination": 86.2774,
        "meta_ra_of_asc_node": 6.0934,
        "meta_arg_of_pericenter": 332.21,
        "meta_mean_anomaly": 180.6153,
        "meta_ephemeris_type": 0,
        "meta_classification_type": "U",
        "meta_norad_cat_id": 34538,
        "meta_element_set_no": 999,
        "meta_rev_at_epoch": 87738,
        "meta_bstar": 0.0015467501,
        "meta_mean_motion_dot": 5.192e-05,
        "meta_mean_motion_ddot": 0,
        "tle_line1": "1 34538U 97051JF  25345.51237337  .00005192  00000+0  15468-2 0  9997",
        "tle_line2": "2 34538  86.2774   6.0934 0032924 332.2100 180.6153 14.42637449877383"
      },
      "geometry": {
        "type": "Point",
        "coordinates": [
          8.248810648961154,
          33.923976822398
        ]
      }
    }
  ]
}